TITLE,CODE,CATEGORY,REGION,ADDRESS,CITY,STATE,GPS,FILENAME,,
Remembering the Assaults on Our Country 9/11,911005,911,,100 E. Commerce Street,Wetumpka,AL,"32.536983, -86.204767",911005.jpg,,
9/11 Memorial - Alabama Fire Fighter Memorial,911040,911,,2501 Phoenix Drive,Tuscaloosa,AL,"33.120711, -87.568967",911040.jpg,,
9/11 Fallen Hero's Memorial,911077,911,,2703 Battleship Parkway,Mobile,AL,"30.682782, -88.016925",911077.jpg,,
9/11 Liberty Garden Memorial,911078,911,,300 19th St North,Birmingham,AL,"33.516233, -86.808950",911078.jpg,,
9/11 Memorial - Let Us Not Forget,911079,911,,Milwaukee and Michigan St,Robertsdale,AL,"30.556783, -87.710400",911079.jpg,,
9/11 Monument,911098,911,,508 Dillingham St,Phenix City,AL,"32.464764, -84.999018",911098.jpg,,
Mountain Brook FD 9/11 Memorial,911140,911,,101 Tibbett St,Mountain Brook,AL,"33.501687, -86.756402",911140.jpg,,
Moody 9/11 Memorial ,911142,911,,600 Park Ave,Moody,AL,"33.589197, -86.493462",911142.jpg,,
Red Bay 9/11 Memorial,911259,911,,203 4th Ave SE,Red Bay,AL,"34.440530, -88.142530",911259.jpg,,
Conway FD 9/11 Memorial,911007,911,,1401 Caldwell St.,Conway,AR,"35.089953, -92.443254",911007.jpg,,
Arkansas 9/11 Memorial,911135,911,,311 S. West Ave,El Dorado,AR,"33.209388, -92.664783",911135.jpg,,
Searcy FD 9/11 Memorial,911136,911,,501 W. Beebe Capps Expy,Searcy,AR,"35.243673, -91.740868",911136.jpg,,
Camden FD 9/11 Memorial,911138,911,,140 Van Buren Ave,Camden,AR,"33.586471, -92.831587",911138.jpg,,
Gila Bend 9/11 Memorial Park,911038,911,,201 E Pima St,Gila Bend,AZ,"32.947406, -112.715396",911038.jpg,,
9/11 Remembrance Garden,911041,911,,1925 E. Third St.,Winslow,AZ,"35.015313, -110.679614",911041.jpg,,
Gilbert 9/11 Memorial ,911080,911,,Civic Center Dr,Gilbert,AZ,"33.331778, -111.788433",911080.jpg,,
9/11 Memorial - Chamber of Commerce,911081,911,,Front St and Avenue A,Salome,AZ,"33.780750, -113.615633",911081.jpg,,
9/11 Arizona Heroes Memorial,911082,911,,434 Whitewater Dr,Bullhead,AZ,"35.094212, -114.634687",911082.jpg,,
Moving Memories,911122,911,,1700 W Washington St,Phoenix,AZ,"33.448585, -112.093807",911122.jpg,,
9/11 Memorial - Hidden Shores Village,911182,911,,10300 Mittry Lake Rd,Yuma*,AZ,"32.882767, -114.458733 ",911182.jpg,,
Scottsdale 9/11 Memorial ,911260,911,,10755 North 124th. St.,Scottsdale,AZ,"33.586017, -111.813083",911260.jpg,,
9-11 Memorial - Yuma Fire station #1,911429,911,,353 S 3rd Ave,Yuma,AZ,"32.720484, -114.623008",911429.jpg,,
9/11 Memorial - LAFD World Trade Center Memorial,911114,911,,1700 Stadium Way,Los Angeles,CA,"34.069111, -118.243131",911114.jpg,,
Beverly Hills 9/11 Memorial Garden,911120,911,,445 N Rexford Dr,Beverly Hills,CA,"34.072172, -118.399293",911120.jpg,,
Semper Memento,911123,911,,375 Cliff Dr,Laguna Beach,CA,"33.543634, -117.792234",911123.jpg,,
9/11 Memorial Bench,911124,911,,Pier Ave,Hermosa Beach,CA,"33.864476, -118.395253",911124.jpg,,
"9/11 Memorial - Manhattan Beach FD, Station 1",911125,911,,400 15th St,Manhattan Beach,CA,"33.888042, -118.409296",911125.jpg,,
Rosemeade 9/11 Memorial ,911154,911,,8838 E Valley Blvd,Rosemead,CA,"34.080539, -118.076641",911154.jpg,,
9/11 Bench,911183,911,,547 Market St,Colusa,CA,"39.214017, -122.009133 ",911183.jpg,,
9/11 Memorial - Shasta Lake Fire District,911205,911,,4126 Ashby Ct,Shasta Lake,CA,"40.680552, -122.371866",911205.jpg,,
Flight 93 Memorial Walk,911224,911,,Dyer St and Smith St,Union City,CA,"37.597493, -122.071339",911224.jpg,,
9/11 Memorial - FD Station 66,911225,911,,13707 Peyton Dr,Chino Hills,CA,"34.003759, -117.733477",911225.jpg,,
Napa 9/11 Memorial Garden,911229,911,,1100 Main St,Napa,CA,"38.299700, -122.286397",911229.jpg,,
9/11 Memorial Fountain,911230,911,,5101 N. Sepulveda Blvd.,Sherman Oaks,CA,"34.163067, -118.466383",911230.jpg,,
Always Remember 9/11 Memorial,911231,911,,40 Presidential Dr,Simi Valley*,CA,"34.259848, -118.819851",911231.jpg,,
9/11 Memorial - Childrens' Park,911257,911,,Mission Blvd and D Street,Hayward,CA,"37.670396, -122.082144",911257.jpg,,
Oak Hill Memorial Park 9/11 Memorial,911261,911,,300 Curtner Ave,San Jose,CA,"37.302875, -121.861308",911261.jpg,,
9/11 Memorial - Barstow Fire Station 361,911262,911,,861 Barstow Rd,Barstow,CA,"34.888700, -117.022756",911262.jpg,,
"9/11 Memorial -  Tracy FD- ""Lest we forget. 9.11.01. Rivet from World Trade Center.""",911263,911,,835 N Central Ave,Tracy,CA,"37.736917, -121.426083",911263.jpg,,
9/11 Memorial - North County FD Flagpole ,911264,911,,315 E Ivy St,Fallbrook,CA,"33.383600, -117.248933",911264.jpg,,
9/11 Memorial -  Kings Mountain Volunteer Fire Brigade ,911265,911,,13899 Skyline Boulevard,Woodside,CA,"37.436017, -122.320433",911265.jpg,,
9/11 Memorial - Ross Valley FD,911266,911,,"777 San Anselmo Ave, San Anselmo, CA 94960",San Anselmo,CA,"37.976695, -122.564091",911266.jpg,,
9/11 Memorial - Linden-Peters FD,911272,911,,17725 CA-26,Linden,CA,"38.016456, -121.099063",911272.jpg,,
9/11 Memorial - Flag Pole being saluted by statue of Gen Eisenhower,911273,911,,39000 Bob Hope Dr,Rancho Mirage,CA,"33.763348, -116.406957",911273.jpg,,
9/11 Memorial -  NW corner Devendorf Park,911274,911,,Mission St and 6th Ave,Carmel,CA,"36.555551, -121.920797",911274.jpg,,
9/11 Memorial - Avalon FD ,911275,911,,420 Avalon Cyn Rd,Avalon,CA,"33.339650, -118.328980",911275.jpg,,
9/11 Memorial - Unity Monument,911276,911,,2271 Temple Ave,Signal Hill,CA,"33.798443, -118.158903",911276.jpg,,
9/11 Memorial - Susanville FD Flag Pole,911277,911,,1505 Main St,Susanville,CA,"40.416351, -120.651916",911277.jpg,,
9/11 Memorial - Yountville Community Center.,911278,911,,6516 Washington St,Yountville,CA,"38.401840, -122.360430",911278.jpg,,
Evergreen Funeral Home 9/11 Memorial,911355,911,,1480 B St,Merced,CA,"37.292608, -120.470131",911355.jpg,,
9/11 Memorial Tree,911359,911,,1146 Church St,Mountain View,CA,"37.388961, -122.083317",911359.jpg,,
9/11 Memorial Sundial - Redondo Beach Civic Center Complex,911388,911,,415 Diamond St,Redondo Beach,CA,"33.845450, -118.388117",911388.jpg,,
9/11 Memorial - Valhalla Memorial Park.,911400,911,,10621 Victory Boulevard,North Hollywood,CA,"34.187005, -118.361606",911400.jpg,,
9/11 “First Responder” F-15A Eagle #77-102 - Static Display,911409,911,,One Air Museum Way,Santa Rosa*,CA,"38.506530, -122.802148",911409.jpg,,
9-11 Memorial - Sculpture of Pair of Firefighers rushing to the Towers,911412,911,,3500 Never Forget Lane,Clovis,CA,"36.788703, -119.715169",911412.jpg,,
9-11 Memorial located between the Bakersfield Fire and Police Department,911413,911,,1315 Buena Vista Rd,Bakersfield,CA,"35.343019, -119.128561",911413.jpg,,
9/11 Memorial - Arkansas Riverwalk,911039,911,,"101 N Union Ave, Pueblo, CO 81003",Pueblo,CO,"38.264811, -104.611722",911039.jpg,,
9/11 Memorial at Liberty Point,911042,911,,1398 S Liberty Point Blvd.,Pueblo West*,CO,"38.285193, -104.723993",911042.jpg,,
Pagosa Fire Protection 9/11 Memorial,911157,911,,191 N Pagosa Blvd,Pagosa Springs,CO,"37.256706, -107.080118",911157.jpg,,
9/11 Memorial - Fort Carson,911158,911,,6012 Nelson Blvd,Colorado Springs - Fort Carson,CO,"38.737900, -104.806879",911158.jpg,,
Aspen FD 9/11 Memorial,911159,911,,420 E Hopkins Ave,Aspen,CO,"39.189779, -106.818674",911159.jpg,,
9/11 Memorial - Broomfield Community Park ,911160,911,,Spader Way,Broomfield,CO,"39.918776, -105.067184",911160.jpg,,
9/11 Memorial on the Terrazzo,911180,911,,Cadet Drive,Air Force Academy*,CO,"39.009083, -104.890200",911180.jpg,,
9/11 Memorial - Denver Firefighters Museum,911181,911,,1326 Tremont Place,Denver*,CO,"39.740767, -104.992717 ",911181.jpg,,
Woodland Park 9/11 Memorial ,911279,911,,US 24 and S Walnut St,Woodland Park,CO,"38.993183, -105.059878",911279.jpg,,
Peace Wall Dedicated to 9/11 Victims,911361,911,,11151 Colorado Blvd,Thornton,CO,"39.897218, -104.940637",911361.jpg,,
9-11 Memorial on the Big Timbers Museum grounds,911410,911,,7515 US-50 Scenic,Lamar,CO,"38.115299, -102.618670",911410.jpg,,
9-11 Memorial plaque on the base of the flagpole - Huerfano County Courthouse lawn,911423,911,,E 4th and Main Sts.,Walsenburg,CO,"37.624745, -104.781660",911423.jpg,,
9/11 Memorial - Cos Cob Park,911055,911,,22 Sound Shore Drive,Greenwich*,CT,"41.028100, -73.597534",911055.jpg,,
Manchester FD 9/11 Memorial,911194,911,,331 Tolland Turnpike,Manchester,CT,"41.810575, -72.521280",911194.jpg,,
9/11 Memorial Plaque and Flagpole - New Milford Train Station ,911226,911,,Patriots Way,New Milford,CT,"41.57756, -73.41386",911226.jpg,,
VFW 9/11 Memorial,911227,911,,Market St and Riversdale Dr,North Grosvenor Dale,CT,"41.984250, -71.896517",911227.jpg,,
9/11 Memorial Sport Center,911228,911,,30 Greenfield St,Wethersfield,CT,"41.715838, -72.674773",911228.jpg,,
9/11 Beam Memorial,911254,911,,144 W Stafford Rd,Stafford,CT,"41.968871, -72.344215",911254.jpg,,
9/11 Memorial - Memorial Tribute Garden,911373,911,,199 Weymouth Rd,Enfield,CT,"41.948486, -72.566395",911373.jpg,,
9-11 Memorial -13 foot section of the Trans-Hudson subway that ran beneath the WTC in NYC.,911424,911,,Walnut Grove Rd.,Middletown,CT,"41.559287, -72.669506",911424.jpg,,
9-11 Memorial,911483,911,,1657 Berlin Turnpike,Berlin,CT,"41.606140, -72.750125",911483.jpg,,
9/11 Memorial - AMC Museum,911061,911,,1301 Heritage Road,Dover AFB*,DE,"39.118314, -75.456370",911061.jpg,,
FSHP 9/11 Memorial,911002,911,,150 W. Stumpfield Road,Pensacola,FL,"30.481572, -87.251663",911002.jpg,,
Patriot Memorial,911008,911,,12190 Forest Hill Blvd,Wellington,FL,"26.65496, -80.23702",911008.jpg,,
9/11 Memorial - Liberty Park,911043,911,,268 N Apopka Ave.,Inverness,FL,"28.840517, -82.329780",911043.jpg,,
9/11 Mural and Monument,911100,911,,27490 Old 41 Road,Bonita Springs,FL,"26.338359, -81.779201",911100.jpg,,
9/11 Memorial Plaza,911132,911,,5089 Northlake Blvd,Palm Beach Gardens,FL,"26.809436, -80.116262",911132.jpg,,
9/11 Memorial -  “Fearless Champions” ,911153,911,,1900 N 20th St,Tampa - Ybor City,FL,"27.961125, -82.436869",911153.jpg,,
9/11 Memorial - Martin Co. Fire Station # 21,911168,911,,3290 SW Mapp Rd,Palm City,FL,"27.165200, -80.269533 ",911168.jpg,,
"9/11 Memorial - ""In Honor and Remembrance""  Welaka Town Hall",911280,911,,400 4th Street,Welaka,FL,"29.479317, -81.670650",911280.jpg,,
"9/11 Memorial - ""In Honor and Remembrance""  Pomona Park Vol FD",911281,911,,109 Worcester Rd,Pomona Park,FL,"29.495700, -81.592016",911281.jpg,,
9/11 Memorial -  Veterans Memorial,911282,911,,Tamaimi Trail and S Biscayne Dr,North Port,FL,"27.045090, -82.247510",911282.jpg,,
9/11 Memorial Flag Pole - Memorial Park,911283,911,,2600 Old Moultrie Road,St. Augustine*,FL,"29.848498, -81.326323",911283.jpg,,
9/11 Memorial Plaque -  Hillsboro Memorial Cemetery,911284,911,,2323 W Brandon Blvd,Brandon,FL,"27.937958, -82.321664",911284.jpg,,
9/11 Memorial - Curlew Hills Memorial Gardens,911285,911,,1750 Curlew Road,Palm Harbor*,FL,"28.051744, -82.753781",911285.jpg,,
9/11 Memorial - Panama City Marina,911358,911,,1 Harrison Ave,Panama City,FL,"30.151018, -85.665729",911358.jpg,,
9/11 Memorial Flagpole Plaque,911376,911,,15861 Co Rd 108,Hilliard,FL,"30.688554, -81.922192",911376.jpg,,
9/11 Memorial Twin Towers - George M. Steinbrenner Field,911380,911,,1 Steinbrenner Dr,Tampa,FL,"27.979050, -82.507483",911380.jpg,,
9/11 Memorial - Madeira Beach Causeway Park,911394,911,,424 Tom Stuart Causeway,Madeira Beach,FL,"27.805330, -82.796979",911394.jpg,,
9/11 Memorial - Firefighters Park,911398,911,,2500 Rock Island Rd,Margate,FL,"26.258724, -80.221671",911398.jpg,,
VFW Post 10209 9-11 Memorial,911404,911,,14736 Edward R Noll Dr,Spring Hill,FL,"28.463391, -82.481574",911404.jpg,,
9/11 Memorial at Windermere - Windermere Town Hall grounds,911407,911,,520 Main St,Windermere,FL,"28.494726, -81.535504",911407.jpg,,
9-11 Memorial - Two pieces of steel from ground zero - Veterans Memorial Center,911428,911,,400 S Sykes Creek Pkwy,Merritt Island,FL,"28.351384, -80.682818",911428.jpg,,
9-11 Memorial - American Eagle with its talons clutching steel from the WTC,911442,911,,E Romana St and Bayfront Pkwy,Pensacola,FL,"30.413280, -87.203234",911442.jpg,,
9-11 Memorial - AL Post 392,911443,911,,535 Oak Ave,Panama City*,FL,"30.157903, -85.664265",911443.jpg,,
War on Terror 9-11 Memorial,911450,911,,925 N Jefferson St.,Perry,FL,"30.12383, -83.58158",911450.jpg,,
9-11 Memorial,911466,911,,8752 Centerville Road,Tallahassee,FL,"30.561783, -84.148539",911466.jpg,,
9-11 Memorial - Pinellas Suncoast Fire & Rescue Bldg,911476,911,,304 1st St,Indian Rocks Beach,FL,"27.881160, -82.849760",911476.jpg,,
9-11 Memorial - Friendship Park,911477,911,,16434 Redington Dr,Redington Beach,FL,"27.814984, -82.817720",911477.jpg,,
9-11 Memorial,911478,911,,31 Piazza Dr.,Port St. Lucie,FL,"27.324045, -80.404968",911478.jpg,,
* 9-11 Memorial,911479,911,,7900 SW 40th St,Miami,FL,"25.728442, -80.321503",911479.jpg,,
9-11 Memorial,911481,911,,59255 Overseas Hwy,Marathon,FL,"24.769011, -80.942599",911481.jpg,,
* 9-11 Memorial,911482,911,,1024 Grinnell St,Key West,FL,"24.553788, -81.793121",911482.jpg,,
9-11 Memorial Mural,911488,911,,27490 Old 41 Rd,Bonita Springs,FL,"26.338321, -81.779177",911488.jpg,,
* 9-11 Memorial - Freedom Park,911514,911,,1515 Golden Gate Pkwy,Naples,FL,"26.173999, -81.787798",911514.jpg,,
9/11 Memorial - Clarkesville Fire Department,911058,911,,303 Adams Street,Clarkesville,GA,"34.615963, -83.524430",911058.jpg,,
9/11 Memorial - Pembroke Police Department,911102,911,,154 W Railroad St,Pembroke,GA,"32.135467, -81.624000",911102.jpg,,
9/11 Memorial - Dekalb County Police and Fire & Rescue Buildings,911148,911,,175 W. Exchange Pl.,Tucker,GA,"33.841448, -84.245635",911148.jpg,,
Tallapoosa 9/11 Memorial ,911151,911,,261 Robertson Ave,Tallapoosa,GA,"33.749035, -85.290594",911151.jpg,,
Suwanee 9/11 Memorial ,911152,911,,Town Center Ave,Suwanee,GA,"34.056979, -84.064053",911152.jpg,,
We WIll Not Forget 9/11 Memorial,911223,911,,E Cherokee Ave and S Public Square,Cartersville,GA,"34.16578, -84.79583",911223.jpg,,
Kennesaw 9/11 Memorial Plaque,911329,911,,N Main St and Lewis St,Kennesaw,GA,"34.024132, -84.615104",911329.jpg,,
9/11 Memorial - The Eternal Flame,911382,911,,520 S King St,Honolulu,HI,"21.305040, -157.857665",911382.jpg,,
“May We Never Forget” Mural,911169,911,,202 Main St,Rock Rapids,IA,"43.431883, -96.167017 ",911169.jpg,,
“The World Family” Sculpture,911170,911,,Hwy 18,Emmetsburg,IA,"43.111700, -94.665517 ",911170.jpg,,
"""9/11 Memorial Flag"" Mural",911172,911,,221 Main Street,Varina,IA,"42.658317, -94.899050 ",911172.jpg,,
9/11 Memorial - Iowa Firefighters Memorial ,911206,911,,900 1st Ave,Coralville,IA,"41.690728, -91.566022",911206.jpg,,
9-11 Memorial - Clear Lake Fire Station,911422,911,,113 N 8th St.,Clear Lake,IA,"43.139071, -93.378992",911422.jpg,,
9-11 Memorial - Etching - Sioux Center Area Veterans Memorial,911473,911,,102 S Main Ave,Sioux Center,IA,"43.076573, -96.175083",911473.jpg,,
Parma 9/11 Memorial ,911071,911,,1008 E. Stockton Rd.,Parma,ID,"43.780329, -116.932882",911071.jpg,,
9/11 Memorial - Fallen Heroes Plaza ,911203,911,,1500 N 15th St,Coeur d'Alene,ID,"47.69028, -116.76223",911203.jpg,,
Madison FD 9/11 Memorial,911268,911,,26 N Center St,Rexburg,ID,"43.826927, -111.783785",911268.jpg,,
9/11 Memorial -  Municipal Fallen Firefighters,911269,911,,1791 Shoreline Dr,Boise,ID,"43.617639, -116.223973",911269.jpg,,
9-11 Freezeout Hill Memorial,911405,911,,Hwy ID 16,Emmett,ID,"43.844205, -116.468169",911405.jpg,,
9/11 Memorial Antenna Base,911066,911,,730 Maine Street,Quincy,IL,"39.931822, -91.404107",911066.jpg,,
9/11 Emergency Responders Memorial,911067,911,,West State Street and Kilburn Avenue,Rockford,IL,"42.274105, -89.102011",911067.jpg,,
CMDR Dan Shanower 9/11 Memorial,911133,911,,400 S Eagle St,Naperville,IL,"41.771307, -88.152136",911133.jpg,,
Belleville FD Station 4 9/11 Memorial,911161,911,,1125 S Illinois St,Belleville,IL,"38.499700, -89.984903",911161.jpg,,
Holiday Shores FD 9/11 Memorial,911162,911,,93 Holiday Dam Rd,Edwardsville,IL,"38.913867, -89.943966",911162.jpg,,
Coal City FD 9/11 Memorial,911163,911,,1455 S Berta Rd,Coal City,IL,"41.267010, -88.265873",911163.jpg,,
9/11 Memorial - Illinois Fallen Firefighters Memorial ,911221,911,,840 S Spring St,Springfield,IL,"39.79791, -89.65572",911221.jpg,,
9/11 Memorial - Wild Meadows Trace ,911286,911,,Spring Rd and Prairie Path Lane,Elmhurst,IL,"41.88548, -87.94945",911286.jpg,,
Wheaton 9/11 Memorial ,911287,911,,115 County Farm Rd,Wheaton,IL,"41.866119, -88.138279",911287.jpg,,
We Remember - 9/11 Memorial,911288,911,,Lincoln Hwy (IL 2) at Palmyra Rd,Dixon,IL,"41.84798, -89.50329",911288.jpg,,
9/11 Memorial - Oak Lawn train station,911327,911,,5120 Museum Dr,Oak Lawn,IL,"41.719338, -87.748832",911327.jpg,,
Decatur 9/11 Memorial in Nelson Park,911440,911,,2301 S Lake Shore Dr,Decatur,IL,"39.831722, -88.922224",911440.jpg,,
9-11 Memorial - Never Forget,911456,911,,"Memorial Park, 309 S Main St",Wauconda,IL,"42.258296, -88.139103",911456.jpg,,
9-11 Memorial - Cemetery,911458,911,,33100 N Hunt Club Rd,Libertyville,IL,"42.343467, -87.964333",911458.jpg,,
9/11 Memorial,911495,911,,SW 2nd St and SW 2nd Ave.,Aledo,IL,"41.200606, -90.750788",911495.jpg,,
9/11 Memorial - Riverfront Park,911496,911,,"Riverfront Park, 300 N Harrison",Algonquin,IL,"42.168655, -88.288673",911496.jpg,,
"9/11 Memorial - Carpentersville Fire Department Station #1",911497,911,,213 Spring St. ,Carpentersville,IL,"42.108410, -88.284933",911497.jpg,,
"9/11 Memorial - Baumann Park",911498,911,,Baumann Park,Cherry Valley,IL,"42.230989, -88.957905",911498.jpg,,
9/11 First Responders Memorial,911499,911,,E Williams and Hazel St,Danville,IL,"40.133466, -87.628328",911499.jpg,,
9/11 Memorial - Tri-State Fire Protection District Station 2,911500,911,,419 Plainfield Rd,Darien/Woodridge,IL,"41.756019, -87.956366",911500.jpg,,
9/11 Memorial - Des Plaines Civic Center,911501,911,,1420 Miner Street,Des Plaines,IL,"42.042205, -87.888517",911501.jpg,,
9/11 Memorial - Fireman's Museum,911502,911,,333 W Nebraska,Frankfort,IL,"41.497867, -87.857525",911502.jpg,,
9/11 Memorial - Solace,911503,911,,17 Highwood Ave,Highwood,IL,"42.201818, -87.809184",911503.jpg,,
Bicentennial Park 9/11 Memorial,911504,911,,Bluff St and W Jefferson,Joliet,IL,"41.525276, -88.087243",911504.jpg,,
9/11 Memorial - Lincolnshire-Riverwoods Fire Protection District Station 51,911505,911,,115 Schelter Rd,Lincolnshire/Riverwoods,IL,"42.194779, -87.939425",911505.jpg,,
9/11 Memorial - Justen Funeral Home,911506,911,,Justen Funeral Home,McHenry,IL,"42.322188, -88.270101",911506.jpg,,
9/11 Memorial - 110-ft Flag Pole ,911507,911,,"2655 Sycamore Dr., parking lot of Stock and Field store",Morris,IL,"41.385001, -88.422942",911507.jpg,,
9/11 Memorial - Mundelein Fire Department,911508,911,,1000 N Midlothian Rd,Mundelein,IL,"42.278983, -88.019492",911508.jpg,,
9/11 Memorial - City Hall,911509,911,,Butler Pl and Courtland Ave to the right of City Hall building,Park Ridge,IL,"42.008160, -87.830941",911509.jpg,,
9/11 Memorial - Shiloh Community Park,911510,911,,Seibert Rd and Park Dr. ,Shiloh,IL,"38.558514, -89.897681",911510.jpg,,
9/11 Memorial - Tinley Park Fire Department Station 1,911511,911,,17355 S 68th Court,Tinley Park,IL,"41.575791, -87.785568",911511.jpg,,
9/11 Memorial - Livingston Field Park,911512,911,,"Livingston Field Park, Leavitt and Polk Sts",Chicago,IL,"41.871589, -87.681314",911512.jpg,,
9/11 Memorial - Ridgewood Memorial Park,911513,911,,Ridgewood Cemetery on Milwaukee Ave,Des Plaines,IL,"42.062672, -87.848808",911513.jpg,,
9/11 Memorial - Memorial Park,911065,911,,421 W Ohio St,Indianapolis,IN,"39.770061, -86.165807",911065.jpg,,
9/11 Memorial Plaque - Circut Court Bldg ,911289,911,,20 E Main St,Nashville,IN,"39.20729, -86.24677",911289.jpg,,
9/11 Memorial -  Rensselaer FD,911290,911,,1060 W Clark St,Rensselaer,IN,"40.941160, -87.167597",911290.jpg,,
9/11 Memorial - Central Park,911291,911,,119 E Canal St,Warsaw,IN,"41.24231, -85.85421",911291.jpg,,
9-11 Memorial Steel Beam in front of Fire Station 2 - Dedicated to Honor and Remember Those Who Lost Their Lives,911414,911,,902 S Grandstaff Drive,Auburn,IN,"41.362064, -85.070970",911414.jpg,,
9-11 Memorial,911457,911,,211 W Madison St,Plymouth,IN,"41.343883, -86.311083",911457.jpg,,
9-11 Memorial - Cemetery,911464,911,,"Elm Ridge Cemetery, 4600 Kilgore AVE",Muncie,IN,"40.181317, -85.440717",911464.jpg,,
Kansas 9/11 Memorial - Overland Park Fire Training Center,911090,911,,12401 Hemlock St,Overland Park,KS,"38.902684, -94.683104",911090.jpg,,
9/11 Memorial - Anthony Memorial Park,911091,911,,W Main St and S Lawrence Ave,Anthony,KS,"37.151703, -98.038305",911091.jpg,,
9/11 Firefighters Memorial,911187,911,,115 S D St,Arkansas City,KS,"37.061233, -97.034233 ",911187.jpg,,
"9-11 Memorial - Wright Park, Dodge City’s Liberty Garden ",911425,911,,108 4th Ave,Dodge City,KS,"37.749689, -100.020730",911425.jpg,,
9/11 Memorial -  Noble Park.,911073,911,,Noble Park Trace,Paducah,KY,"37.093659, -88.636726",911073.jpg,,
Paducah Global War on Terrorism Memorial,911074,911,,Clark Street,Paducah,KY,"37.083078, -88.598139",911074.jpg,,
Henderson FD 9/11 Memorial,911164,911,,343 Starlite Dr,Henderson,KY,"37.863294, -87.557286",911164.jpg,,
Owensboro 9/11 Memorial ,911165,911,,3845 S Griffith Ave,Owensboro,KY,"37.735463, -87.124710",911165.jpg,,
Kentucky 9/11 Memorial,911166,911,,2501 N Dixie Blvd,Radcliff,KY,"37.868612, -85.961690",911166.jpg,,
Greenville 9/11 Memorial ,911167,911,,136 S Main St,Greenville,KY,"37.199880, -87.178156",911167.jpg,,
Northern Kentucky 9/11 Memorial,911200,911,,800 Buttermilk Pike,Crescent Springs,KY,"39.055850, -84.586296",911200.jpg,,
Cynthiana 9/11 Memorial,911210,911,,111 S Main St,Cynthiana,KY,"38.389739, -84.298055",911210.jpg,,
Newport 9/11 Memorial ,911215,911,,403 York St,Newport,KY,"39.092254, -84.495982",911215.jpg,,
Livingston 9/11 Memorial ,911292,911,,S Upper River Rd and S Daniel Boone Trail,Livingston,KY,"37.298260, -84.215028",911292.jpg,,
Lafayette 9/11 Memorial ,911149,911,,215 Polk St,Lafayette,LA,"30.225034, -92.017655",911149.jpg,,
Lake Charles 9/11 Memorial ,911150,911,,Bord du Lac Dr,Lake Charles,LA,"30.225434, -93.223520",911150.jpg,,
"""Freedom Towers"" Memorial",911155,911,,Little Bayou Black Dr,Houma,LA,"29.589200, -90.738167",911155.jpg,,
9/11 Liberty Garden Memorial - Bossier City Fire Station 1 and Police Dept,911293,911,,2500 Beckett St,Bossier City,LA,"32.52575, -93.71316",911293.jpg,,
9/11 Memorial - Fire District 12 Firehouse,911294,911,,19375 LA-36,Covington,LA,"30.479705, -90.082783",911294.jpg,,
* 9-11 Memorial - Heritage Park,911470,911,,1701 Bayou Lane,Slidell*,LA,"30.278873, -89.783451",911470.jpg,,
9/11 Community Memorial,911056,911,,399 Main Street,Falmouth,MA,"41.552117, -70.611304",911056.jpg,,
9/11 Memorial - near Terminal A of Boston Logan International Airport,911127,911,,Logan Memorial Way,Boston,MA,"42.366257, -71.022571",911127.jpg,,
9/11 Memorial Pavilion,911295,911,,Main and Chandler Streets,Tewksbury,MA,"42.606583, -71.225868",911295.jpg,,
9/11 Memorial Flag Pole Plaque - Bridgewater's Central Square,911296,911,,School St and Central Square,Bridgewater,MA,"41.988882, -70.976575",911296.jpg,,
9/11 Eternal Flame Memorial - West Springfield Town Common,911297,911,,Park St. and Elm St.,West Springfield,MA,"42.104594, -72.621555",911297.jpg,,
9/11 Memorial -  Agawam Fire Department,911298,911,,800 Main Street,Agawam,MA,"42.066261, -72.616285",911298.jpg,,
Ludlow 9/11 Memorial,911299,911,,574 Center Street,Ludlow,MA,"42.175692, -72.473091",911299.jpg,,
Westfield 9/11 Memorial Obelisk ,911331,911,,96-90 US-202,Westfield,MA,"42.131792, -72.743603",911331.jpg,,
First Responders 9/11 Memorial,911332,911,,1212 Carew St,Springfield,MA,"42.133713, -72.571930",911332.jpg,,
Jennifer Lynn Kane Memorial Plaque,911357,911,,64 Water St,Plymouth,MA,"41.957659, -70.661074",911357.jpg,,
Attleboro 9/11 Memorial ,911364,911,,199 County St,Attleboro,MA,"41.937460, -71.294679",911364.jpg,,
9/11 Memorial - Newton Centre Fire Headquarters,911377,911,,1164 Centre St,Newton Centre,MA,"42.332645, -71.193704",911377.jpg,,
"Standing in Memorial Park, a polished black slab of granite inscribed, “In Memory of Those Who Have Died.” - Dawn to 10pm",911420,911,,Pleasant and Essex Sts.,Marblehead*,MA,"42.502385, -70.855984",911420.jpg,,
9-11 Memorial in front of the MMR Fire Department,911432,911,,3132 Richardson Rd,Sandwich - Otis Air National Guard*,MA,"41.656683, -70.529983",911432.jpg,,
9-11 Memorial - Centerville-Osterville-Marstons Mills Fire-Rescue and Emergency Services Bldg,911433,911,,1875 Falmouth Road,Centerville,MA,"41.655772, -70.355210",911433.jpg,,
"9-11 Memorial - Right side of Door 3, Yarmouth Fire Dept Building",911434,911,,520 Buck Island Rd,West Yarmouth,MA,"41.660704, -70.253866",911434.jpg,,
9-11 Memorial Steel - Dennis FD Headquarters Station,911435,911,,883 Main St,West Dennis,MA,"41.667777, -70.150591",911435.jpg,,
9-11 Memorial - Brewster Fire Station,911436,911,,1671 Main St,Brewster,MA,"41.757306, -70.090372",911436.jpg,,
9-11 Memorial Steel - Chatham Fire and Rescue Dept,911437,911,,135 Depot Rd,Chatham,MA,"41.685848, -69.962683",911437.jpg,,
9/11 Firefighters Memorial,911054,911,,6 N Division Street,Ocean City,MD,"38.331397, -75.085402",911054.jpg,,
9/11 Memorial - National Fallen Firefighters Memorial,911062,911,,16825 S Seton Avenue,Emmitsburg,MD,"39.695012, -77.325732",911062.jpg,,
9/11 Memorial of Maryland,911101,911,,401 East Pratt Street,Baltimore,MD,"39.286262, -76.609723",911101.jpg,,
9/11 Memorial -  Hagerstown City Park,911300,911,,Highland Ave and Key St,Hagerstown,MD,"39.639024, -77.730770",911300.jpg,,
"9/11 Memorial - ""To Lift A Nation""",911351,911,,16825 S Seton Ave,Emmitsburg,MD,"39.694273, -77.326556",911351.jpg,,
"""9 11 A Day To Remember - polished granite memorial honors the victims and first responders of 9/11",911421,911,,133 W Baltimore St.,Taneytown,MD,"39.663238, -77.180692",911421.jpg,,
9/11 Memorial - West end of Rockland Public Safety bldg,911057,911,,118 Park St,Rockland,ME,"44.101614, -69.116824",911057.jpg,,
9/11 Memorial - Fort Allen Park,911301,911,,49 Eastern Promenade,Portland,ME,"43.665003, -70.240701",911301.jpg,,
9/11 Fire Fighter Memorial,911009,911,,6990 E. Fulton,Ada Township,MI,"42.958798, -85.495898",911009.jpg,,
Never Forget Monument,911010,911,,1155 Exeter Rd.,Bloomfield Township*,MI,"42.578056, -83.284190",911010.jpg,,
Fire Fighters World Trade Center 9/11 Memorial,911011,911,,4090 Main St.,Brown City,MI,"43.212812, -82.983797",911011.jpg,,
9/11 Memorial - Mott Community College,911012,911,,1401 East Court St.,Flint,MI,"43.019542, -83.672471",911012.jpg,,
9/11 Memorial - Veterans Memorial Park,911013,911,,195 W. Vienna St.,Clio,MI,"43.177172, -83.736449",911013.jpg,,
9/11 Memorial Delhi Township,911014,911,,Corner of Holt Rd and Aurelius Rd,Delhi,MI,"42.640503, -84.523159",911014.jpg,,
9/11 Memorial - Ypsilanti,911015,911,,Corner of Perrin and Cross St.,Ypsilanti,MI,"42.246145, -83.620957",911015.jpg,,
9/11 Memorial Monument,911016,911,,23600 Liberty,Farmington,MI,"42.465373, -83.378124",911016.jpg,,
World Trade Center Steel Beam,911017,911,,210 W. Genesee,Frankenmuth,MI,"43.335999, -83.740170",911017.jpg,,
Genesee 9/11 Memorial,911018,911,,7234 Glidden St.,Genesee,MI,"43.112426, -83.613995",911018.jpg,,
9/11 Fire Fighter Memorial,911019,911,,6401 West Lake St.,Glen Arbor,MI,"44.895857, -85.985649",911019.jpg,,
Harper Woods 9/11 Memorial,911020,911,,19730 Harper Ave.,Harper Woods,MI,"42.433250, -82.921964",911020.jpg,,
9/11 Memorial - Shelby Township FD,911021,911,,6345 23 Mile Road,Shelby Township*,MI,"42.669763, -83.049043",911021.jpg,,
NFHS 9/11 Memorial Outdoor Classroom,911022,911,,32900 West 13 Mile Rd,Farmington Hills,MI,"42.515135, -83.376447",911022.jpg,,
9/11 Memorial - Ohio Veterans Memorial,911023,911,,312 S Broadway St # 4,Lake Orion,MI,"42.775967, -83.239630",911023.jpg,,
Remembrance Memorial,911024,911,,100 N. Grand Ave,Lansing,MI,"42.734013, -84.550287",911024.jpg,,
9/11 Memorial - Two Rivers Park,911025,911,,Portland Riverwalk,Portland,MI,"42.871388, -84.901773",911025.jpg,,
Brighton 9/11 Memorial,911026,911,,615 W. Grand River,Brighton,MI,"42.534167, -83.783218",911026.jpg,,
The Shrine of Remembrance,911302,911,,32163 W Huron River Dr,Flat Rock - New Boston*,MI,"42.11965, -83.34726",911302.jpg,,
9/11 Memorial - Traverse City Fire Admin Bldg ,911326,911,,897 Parsons Rd,Traverse City,MI,"44.746363, -85.560521",911326.jpg,,
Meredith L. Whalen Memorial Bench,911356,911,,1150 S Canton Center Rd,Canton*,MI,"42.298197, -83.490514",911356.jpg,,
9/11 Memorial - Fenton FD ,911403,911,,205 E Caroline St,Fenton,MI,"42.796756, -83.703116",911403.jpg,,
Dec 7 1941 - 9.11.2001 Memorial - Shelby Township Municipal Offices complex,911406,911,,52700 Van Dyke Ave,Shelby Township,MI,"42.682455, -83.031540",911406.jpg,,
9-11 Memorial - Michigan Fallen Heroes Memorial,911441,911,,1200 Telegraph Rd,Pontiac,MI,"42.660060, -83.333738",911441.jpg,,
9/11 Memorial - Rockville FD,911044,911,,24001 Fire Hall Ln.,Rockville,MN,"45.472064, -94.325903",911044.jpg,,
9/11 Memorial - Blake School's Spirit Plaza ,911303,911,,110 Blake Rd S,Hopkins*,MN,"44.92283, -93.39066",911303.jpg,,
9/11 Memorial Plaque - St. Anthony FD entrance,911304,911,,3505 Silver Lake Rd NE,St Anthony - Minneapolis,MN,"45.031560, -93.217610",911304.jpg,,
9/11 Memorial Park,911362,911,,S 1st St. & W Marvin Schwan Memorial Dr.,Marshall,MN,"44.445868, -95.788706",911362.jpg,,
"""They United Us As Americans"" 9-11 Memorial",911454,911,,924 Huff St,Winona,MN,"44.039086, -91.650374",911454.jpg,,
Clinton 9/11 Memorial ,911045,911,,S. Washington St. and W. Jefferson St.,Clinton,MO,"38.369720, -93.777522",911045.jpg,,
Fenton Heroes Memorial,911119,911,,Fenton City Park - Larkin Williams Rd and Sweaney Rd,Fenton,MO,"38.52559, -90.43666",911119.jpg,,
Arnold 9/11 Memorial ,911171,911,,1695 Missouri State Rd,Arnold,MO,"38.442056, -90.402411",911171.jpg,,
O'Fallon 9/11 Memorial,911173,911,,100 N Main St,O'Fallon,MO,"38.811433, -90.697071",911173.jpg,,
"The ""Spirit of Freedom"" 9/11 Memorial",911174,911,,"Median, Winghaven Boulevard and Highway 40/61",O'Fallon,MO,"38.750015, -90.752029",911174.jpg,,
9/11 Memorial -  McKernan Park,911305,911,,300 Old US Hwy 71,Peculiar,MO,"38.715595, -94.458788",911305.jpg,,
9/11 Memorial - Franklin County Courthouse,911360,911,,300 E Main St,Union,MO,"38.444958, -91.005796",911360.jpg,,
"A plaque at the base of flagpoles reads, “In memory of those who lost their lives in the fight for freedom 9-11-2001.”",911419,911,,124 W. Main St.,Fredericktown,MO,"37.559831, -90.295792",911419.jpg,,
9-11 Memorial - Jackson Fire and Rescue Bldg,911438,911,,525 S Hope St,Jackson,MO,"37.377617, -89.668040",911438.jpg,,
9-11 Memorial ,911487,911,,180 East Main Street,Smithville,MO,"39.387234, -94.580220",911487.jpg,,
9/11 Memorial Plaza,911001,911,,Jackson and North Main Streets,Hattiesburg,MS,"31.328637, -89.293232",911001.jpg,,
9/11 Memorial - Thompson Falls Rural FD,911177,911,,1811 W Main St,Thompson Falls,MT,"47.599233, -115.359667",911177.jpg,,
9/11 Memorial Plaque - Choteau Cemetery ,911255,911,,Hwy 221 and Cemetery Rd,Choteau,MT,"47.812300, -112.162590",911255.jpg,,
9/11 Memorial - Health Sciences Building,911333,911,,3803 Central Ave,Billings,MT,"45.771809, -108.615017",911333.jpg,,
9/11 Memorial - Plains VFD Building,911334,911,,5th Ave S and 1st St,Plains,MT,"47.456778, -114.889020",911334.jpg,,
Apex 9/11 Memorial,911003,911,,N Salem and Saunders St,Apex,NC,"35.731842, -78.850944",911003.jpg,,
"""RISE"" - 9/11 memorial sculpture",911027,911,,124 W Elm Street,Graham*,NC,"36.069175, -79.401797",911027.jpg,,
War on Terror Memorial,911034,911,,600 Bikram Drive,Holly Springs*,NC,"35.663098, -78.826920",911034.jpg,,
9/11 Memorial - In front of Fire Station,911060,911,,515 W Swannanoa Avenue,Liberty,NC,"35.851819, -79.580496",911060.jpg,,
9/11 Memorial - Tri Community Vol Fire Department,911108,911,,589 Broad Creek Rd,New Bern,NC,"35.080843, -76.949394",911108.jpg,,
9/11 Memorial - Havelock Police Department,911109,911,,2 Governmental Ave,Havelock,NC,"34.875625, -76.902834",911109.jpg,,
9/11 Memorial - Atlantic Beach Fire Station 34,911110,911,,125 W Fort Macon Rd,Atlantic Beach,NC,"34.700933, -76.739788",911110.jpg,,
Greensboro 9/11 Memorial,911137,911,,501 S Elm St,Greensboro,NC,"36.067281, -79.790547",911137.jpg,,
9/11 Memorial - Chatham County Justice Center,911139,911,,129 Sanford Rd,Pittsboro,NC,"35.718422, -79.178237",911139.jpg,,
9/11 Memorial - Cornelius-Lemley Fire Station 1,911141,911,,19729 S Main St,Cornelius,NC,"35.478227, -80.856013",911141.jpg,,
9/11 Memorial - Lejeune Memorial Gardens,911143,911,,Montford Landing Rd,Jacksonville,NC,"34.747056, -77.414848",911143.jpg,,
9/11 Memorial - Wilmington Empie Park Fire Station,911144,911,,3403 Park Ave,Wilmington,NC,"34.219914, -77.905048",911144.jpg,,
Clyde FD 9/11 Memorial,911178,911,,8531 Carolina Blvd,Clyde,NC,"35.532568, -82.913645",911178.jpg,,
Carolina Field of Honor at Triad Park - Tower Artifact on walkway to center Obelisk,911427,911,,9652 W Market St,Kernersville*,NC,"36.121939, -80.034947",911427.jpg,,
9/11 memorial outside Duke Centennial Hall - limited parking available,911431,911,,9330 Robert D. Snyder Rd,Charlotte,NC,"35.312089, -80.740653",911431.jpg,,
9-11 Memorial,911449,911,,403 W School Rd,Pikeville,NC,"35.501384, -77.983989 ",911449.jpg,,
9-11 Memorial Fountain,911455,911,,55 N Broad St West,Angier,NC,"35.508027, -78.739527",911455.jpg,,
Dunseith 9/11 Memorial - International Peace Garden ,911270,911,,,Dunseith*,ND,"48.998925, -100.063574",911270.jpg,,
9/11 Memorial Clock,911179,911,,1501 16th St,Central City,NE,"41.116217, -97.999520",911179.jpg,,
Columbus 9/11 Memorial ,911195,911,,Pawnee Park Dr,Columbus,NE,"41.419039, -97.369044",911195.jpg,,
Greenwood Cemetery 9/11 Memorial,911354,911,,1000 W 8th St,York*,NE,"40.870567, -97.609397",911354.jpg,,
Hudson 9/11 Memorial ,911196,911,,19 Kimball Hill Rd,Hudson,NH,"42.768327, -71.403064",911196.jpg,,
Patriots’ Garden,911053,911,,4 Moore Road,Cape May,NJ,"39.101328, -74.803164",911053.jpg,,
"9/11 Memorial - ""Rememberance and Rebirth"" Eagle Rock Observation Deck ",911092,911,,Crest Drive,West Orange,NJ,"40.803066, -74.238380",911092.jpg,,
"""WE SHALL NEVER FORGET"" 9/11 Memorial",911097,911,,N Crescent Blvd & Rogers Ave,Pennsauken Township,NJ,"39.955731, -75.058000",911097.jpg,,
Harrison 9/11 Memorial,911118,911,,427 Harrison Ave,Harrison,NJ,"40.74655, -74.15488",911118.jpg,,
Empty Sky Memorial,911130,911,,1 Audrey Zapp Dr,Jersey City,NJ,"40.708232, -74.035326",911130.jpg,,
"9/11 Memorial - ""Teardrop Memorial""",911317,911,,51 Port Terminal Blvd,Bayonne*,NJ,"40.663713, -74.069246",911317.jpg,,
9/11 Memorial -  Crestwood Park,911318,911,,360 W Crescent Ave,Allendale,NJ,"41.036759, -74.136962",911318.jpg,,
9/11 Memorial - Tinton Falls Fire Company ,911319,911,,695 Tinton Ave,Tinton Falls,NJ,"40.304029, -74.099188",911319.jpg,,
9/11 Memorial at Shrine of St. Joseph,911320,911,,"1050 Long Hill Road, Stirling NJ",Stirling,NJ,"40.682019, -74.490022",911320.jpg,,
9/11 Memorial -  Mercer County Park,911321,911,,334 S Post Rd,West Windsor Township,NJ,"40.263186, -74.642594 ",911321.jpg,,
North Bruswick 9/11 Memorial ,911322,911,,Hermann Rd and Willow Ave,North Bruswick Township,NJ,"40.467402, -74.457431",911322.jpg,,
Green Brook 9/11 Memorial ,911323,911,,100 Top of the World Way,Green Brook Township,NJ,"40.605761, -74.497244",911323.jpg,,
"9/11 Memorial - ""Angel in Anguish"" - Windward Beach Park",911324,911,,265 Princeton Ave,Brick Township,NJ,"40.057470, -74.111150",911324.jpg,,
9/11 Memorial -  Mount Mitchill Scenic Overlook Park,911325,911,,460 Ocean Blvd,Atlantic Highlands,NJ,"40.407745, -74.004738",911325.jpg,,
9/11 Memorial - LC Fire House,911328,911,,95 Church St,Liberty Corner,NJ,"40.666443, -74.587574",911328.jpg,,
"9/11 Memorial - ""Time to Remember"" - Somerset County Courthouse ",911335,911,,N Bridge St and Main St,Somerville,NJ,"40.568336, -74.611493",911335.jpg,,
9/11 Memorial - Pequannock Municipal Building,911336,911,,530 Newark Pompton Turnpike,Pequannock Township,NJ,"40.964680, -74.294410",911336.jpg,,
911 Memorial Sundial,911337,911,,86 Union St,Medford,NJ,"39.896741, -74.832953",911337.jpg,,
Morganville - Marlboro Township 9/11 Memorial,911338,911,,1996 Recreation Center Drive,Morganville - Marlboro Township,NJ,"40.327935, -74.264066",911338.jpg,,
9/11 Memorial -  Manalapan City offices and PD,911352,911,,120 County Road 522,Manalapan Township,NJ,"40.290317, -74.341838",911352.jpg,,
Hazlet Township 9/11 Memorial ,911353,911,,1776 Union Ave,Hazlet,NJ,"40.421481, -74.159575",911353.jpg,,
Absecon 9/11 Memorial ,911367,911,,500 Mill Road,Abescon,NJ,"39.433139, -74.506028",911367.jpg,,
9/11 Memorial - Saw Mill Park,911392,911,,1316 Harding Hwy,Richland,NJ,"39.491071, -74.869187",911392.jpg,,
Tramontin Harley Davidson entrance - NEVER FORGET,911416,911,,482 Hope Blairstown Rd.,Blairstown,NJ,"40.926499, -74.958814",911416.jpg,,
Morris County September 11th Memorial - Includes steel from the towers,911439,911,,460 W Hanover Ave,Morristown,NJ,"40.832944, -74.522260",911439.jpg,,
9-11 Memorial,911444,911,,St James Pl - Boardwalk,Atlantic City,NJ,"39.357079, -74.425588",911444.jpg,,
9-11 Memorial,911494,911,,221 Washington Crossing Pennington Rd,Titusville,NJ,"40.309029, -74.822892",911494.jpg,,
Belen 9/11 Memorial,911197,911,,149 N Main St,Belen,NM,"34.661368, -106.776926",911197.jpg,,
9-11 Memorial,911465,911,,996 S Broadway,Truth or Consequences,NM,"33.121589, -107.265712",911465.jpg,,
9/11 WTC Memorial,911046,911,,1751 College Ave.,Elko,NV,"40.843817, -115.752755",911046.jpg,,
9/11 Memorial - Las Vegas Fire and Rescue,911106,911,,1020 Hinson St.,Las Vegas,NV,"36.160455, -115.195477",911106.jpg,,
Fallon 9/11 Memorial ,911256,911,,S Carson St and W1st St,Fallon,NV,"39.474262, -118.778116",911256.jpg,,
Carson City 9/11 Memorial ,911271,911,,Seely Loop,Carson City,NV,"39.170226, -119.753410",911271.jpg,,
9-11 Memorial - Northern Nevada Veterans Memorial Cemetery,911489,911,,14 Veteran's Way,Fernley,NV,"39.61873, -119.22989",911489.jpg,,
9-11 Memorial - Firefighters Memorial Park,911490,911,,W Oakey Blvd and Redwood St,Las Vegas,NV,"36.151290, -115.238308",911490.jpg,,
9-11 Memorial - Police Memorial Park,911491,911,,3250 Metro Academy Way,Las Vegas,NV,"36.221691, -115.310606",911491.jpg,,
9/11 Memorial - Highland Falls Memorial Park,911028,911,,Veterans Way and Main Street,Highland Falls,NY,"41.368741, -73.965912",911028.jpg,,
Michael Carlo Memorial Bench,911029,911,,"Boardwalk, 1 Grand Blvd.",Long Beach,NY,"40.583877, -73.685281",911029.jpg,,
9/11 Memorial - Capen Hose Fire Museum,911076,911,,237 Main St. South,Brockport,NY,"43.209555, -77.940138",911076.jpg,,
9/11 Memorial - Birmingham City Hall,911093,911,,Hawley and State Street,Binghamton,NY,"42.096580, -75.912271",911093.jpg,,
Nassau County 9/11 Memorial,911094,911,,Park Blvd & Merrick Ave,East Meadow*,NY,"40.734115, -73.580355",911094.jpg,,
9/11 Memorial - Center Moriches Fire Department,911103,911,,301 Montauk Hwy,Center Moriches,NY,"40.800507, -72.790629",911103.jpg,,
9/11 Memorial - Point Lookout,911104,911,,1300 Lido Blvd,Point Lookout,NY,"40.588112, -73.585141",911104.jpg,,
Town of Babylon 9/11 Hometown Memorial,911105,911,,,Babylon,NY,"40.633303, -73.337606",911105.jpg,,
9/11 Memorial - Steel Beams,911113,911,,214 Fort Hunter Road,Amsterdam (Florida),NY,"42.892248, -74.225156",911113.jpg,,
The Rising,911129,911,,Kensico Dam Plaza,Valhalla,NY,"41.072354, -73.765625",911129.jpg,,
Postcards 9/11 Memorial,911131,911,,"Bank Street, Staten Island, NY 10301",Staten Island,NY,"40.646740, -74.076600",911131.jpg,,
"""When Terror Strikes"" Mural",911156,911,,640 Co Rte 20,Oswego,NY,"43.413883, -76.562300 ",911156.jpg,,
9/11 Carillon,911184,911,,23 E Buffalo St,Churchville,NY,"43.104000, -77.883367 ",911184.jpg,,
9/11 Cross,911185,911,,Church St,New York,NY,"40.712467, -74.009700 ",911185.jpg,,
9/11 Marker,911191,911,,8000 Myrtle Ave,Glendale,NY,"40.702806, -73.867750 ",911191.jpg,,
New Hackensack FD 9/11 Memorial,911192,911,,217 Myers Corners Rd,Wappingers Falls,NY,"41.606550, -73.872174",911192.jpg,,
9/11 Memorial - Sgt Palmateer Park ,911193,911,,Sergeant Palmateer Way,Wappingers Falls,NY,"41.579547, -73.909428",911193.jpg,,
Dewitt 9/11 Memorial,911204,911,,5400 Butternut Dr,Dewitt,NY,"43.04611, -76.05013",911204.jpg,,
9/11 Memorial - Stringham Park Memorial Plaza ,911216,911,,78 Stringham Rd,Lagrange,NY,"41.6554, -73.7962",911216.jpg,,
9/11 Memorial - Stony Point Memorial Garden ,911217,911,,Central Drive and S Liberty Dr,Stony Point,NY,"41.226080, -73.986750",911217.jpg,,
Geneva 9/11 Memorial ,911218,911,,47 Lake Front Dr,Geneva,NY,"42.86487, -76.97957",911218.jpg,,
9/11 Memorial - Union Vale Fire District - We Will Never Forget ,911220,911,,3373 NY-82,Verbank,NY,"41.72843, -73.71523",911220.jpg,,
9/11 Memorial -  Homer FD and Town Office,911258,911,,41 Main St,Homer,NY,"42.634800, -76.178590",911258.jpg,,
9/11 Memorial - Elks Lodge 1493,911311,911,,900 Wolcott Ave,Beacon,NY,"41.499109, -73.967686",911311.jpg,,
Auburn 9/11 Memorial ,911368,911,,City Hall Park 24 South Street,Auburn,NY,"42.929767, -76.565583",911368.jpg,,
Kaisertown 9/11 Memorial,911369,911,,1675 Clinton St,Buffalo,NY,"42.871733, -78.814050 ",911369.jpg,,
9/11 Memorial -  Cicero FD,911370,911,,5761 W Seymour St,Cicero,NY,"43.175620, -76.120421",911370.jpg,,
Cortland 9/11 Memorial sculpture ,911371,911,,Church Street,Cortland,NY,"42.599150, -76.177567 ",911371.jpg,,
Naples 9/11 Memorial ,911386,911,,S Main St and Vine St,Naples,NY,"42.613733, -77.403800",911386.jpg,,
9/11 Memorial - Rescue Dog,911389,911,,2350 Broadhollow Road,Farmingdale*,NY,"40.755155, -73.427558",911389.jpg,,
Hunter Mountain Ski Resort 9/11 Memorial,911390,911,,Ski Bowl Rd,Hunter,NY,"42.204250, -74.205212",911390.jpg,,
Malone 9/11 Memorial ,911397,911,,26-2 Webster St,Malone,NY,"44.848364, -74.297165",911397.jpg,,
9/11 Memorial - Mt Kisco Public Library,911399,911,,100 Main St,Mt. Kisco,NY,"41.207132, -73.726969",911399.jpg,,
Clifton Park 9/11 Memorial,911401,911,,Clifton Park Rest Area - I-87 Northbound,Clifton Park,NY,"42.877467, -73.776517",911401.jpg,,
Spring Lake Fire Department 9/11 Memorial,911402,911,,123 Maxwell Lane,Kingston,NY,"41.924107, -74.042898",911402.jpg,,
9-11 Memorial - Wall of Remembrance,911467,911,,1904 Surf Ave,Brooklyn,NY,"40.574026, -73.984704",911467.jpg,,
9-11 Memorial - Garden of Remembrance,911468,911,,W Beech St and Virginia Ave,Long Beach,NY,"40.585930, -73.692674",911468.jpg,,
9-11 Memorial,911469,911,,675 W Park Ave,Long Beach,NY,"40.588362, -73.683639",911469.jpg,,
9-11 Memorial,911471,911,,401 Long Beach Road,Island Park,NY,"40.607207, -73.654529",911471.jpg,,
9-11 Memorial,911472,911,,415 W Park Ave,Long Beach,NY,"40.588414, -73.676337",911472.jpg,,
9-11 Memorial,911493,911,,180 Greenwich St,New York,NY,"40.711608, -74.013329",911493.jpg,,
9/11 Memorial - Williams Park,911030,911,,113 E Stone Street,Gibsonburg*,OH,"41.386721, -83.318975",911030.jpg,,
Firefighters 9/11 Memorial,911047,911,,200 Highland Ave.,Cambridge,OH,"40.024740, -81.583106",911047.jpg,,
Police and Firefighters 9/11 Memorial,911069,911,,6184 Pearl Rd,Parma Heights,OH,"41.393419, -81.758588",911069.jpg,,
9/11 Memorial - The Shoppes of Parma ,911070,911,,8253 W Ridgewood Dr,Parma,OH,"41.382478, -81.740701",911070.jpg,,
9/11 Memorial - Washington Township Fire Station 93,911083,911,,5825 Brand Road,Dublin,OH,"40.126183, -83.147515",911083.jpg,,
9/11 Memorial - Eastlake PD,911115,911,,"35150 Lakeshore Blvd, Eastlake, OH 44095",Eastlake,OH,"41.66226, -81.43673",911115.jpg,,
9/11 Dedication Plaque,911186,911,,207 S Court St,Circleville,OH,"39.600600, -82.946017 ",911186.jpg,,
Cincinnati 9/11 Memorial ,911198,911,,6303 Harrison Ave,Cincinnati,OH,"39.186025, -84.652579",911198.jpg,,
Wauseon FD 9/11 Memorial,911199,911,,8514 OH-108,"Wauseon, Clinton Township",OH,"41.599078, -84.151125",911199.jpg,,
Streetsboro FD 9/11 Memorial,911207,911,,9184 Cleveland Canton Rd,Streetsboro,OH,"41.241206, -81.344451",911207.jpg,,
9/11 Memorial - First Responders Park,911312,911,,4010 Main St,Hilliard,OH,"40.033641, -83.159546",911312.jpg,,
9/11 Memorial -  bike path at the Beavercreek Station.,911313,911,,1152 N Fairfield Rd,Beavercreek,OH,"39.723598, -84.059193",911313.jpg,,
9/11 Memorial -  Wright State National Center for Medical Readiness,911314,911,,506 E Xenia Dr,Fairborn,OH,"39.820737, -84.011895",911314.jpg,,
Tiffin Police and Fire All Patriots Memorial,911315,911,,S Washington St and Frost Pkwy,Tiffin,OH,"41.118372, -83.176908",911315.jpg,,
Urbana 9/11 Memorial,911339,911,,1500 S US Highway 68,Urbana,OH,"40.091957, -83.756347",911339.jpg,,
9/11 Memorial - Silver Park,911340,911,,2930 S Union Ave,Alliance,OH,"40.8935, -81.10336",911340.jpg,,
9/11 First Responders Last Call Memorial,911363,911,,6382 Monroe St,Sylvania*,OH,"41.723083, -83.692083",911363.jpg,,
9/11 Memorial - First Responders Park,911387,911,,W Main St and Collegeview Rd,Westerville,OH,"40.125336, -82.944564",911387.jpg,,
9/11 Memorial - Fulton County Fairgrounds,911396,911,,"8514 OH-108, Wauseon, OH 43567",Dover Township - Wauseon*,OH,"41.599083, -84.151100",911396.jpg,,
9-11 Memorial - We Will Never Forget Memorial,911445,911,,201 E Main St,Barnesville,OH,"39.987626, -81.175053",911445.jpg,,
9-11 Memorial,911515,911,,1055 S Raccoon Rd.,Austintown,OH,"41.090886,-80.731856",911515.jpg,,
Washington Irving Park 9/11 Memorial,911006,911,,13835 S Memorial Dr.,Bixby*,OK,"35.963044, -95.887009",911006.jpg,,
9/11 Memorial Flagpole Bronze Plaque.,911374,911,,Garden of Memories Cemetery Cemetery Road,Colbert,OK,"33.863100, -96.508933",911374.jpg,,
9/11 Memorial - Gold Beach High School,911087,911,,29516 Ellensburg Ave.,Gold Beach,OR,"42.408581, -124.421347",911087.jpg,,
9/11 Memorial Plaque adjacent to the Airman's Memorial,911175,911,,Southwest Watson Avenue,Beaverton,OR,"45.481767, -122.806500 ",911175.jpg,,
9/11 Memorial - Ackerman Jr High Peace Garden - best time to visit during NON-School hours,911384,911,,350 SE 13th Ave,Canby*,OR,"45.252904, -122.684576",911384.jpg,,
9/11 Memorial - Inside the Oregon DPS,911385,911,,4190 Aumsville Hwy SE,Salem*,OR,"44.892594, -122.955287",911385.jpg,,
9-11 Memorial - Canby Fire District 62,911418,911,,221 S. Pine St.,Canby,OR,"45.264435, -122.682407",911418.jpg,,
9-11 Memorial,911446,911,,661 Chemawa Rd NE,Keizer,OR,"44.997056, -123.025105",911446.jpg,,
9/11 Memorial - Adjacent to American Legion ,911031,911,,206 Wildlife Lodge Road,Lower Burrellf,PA,"40.582598, -79.711062",911031.jpg,,
9/11 Memorial - Warren County Memorial Park,911048,911,,Preston Rd. and Pennsylvania Ave. W,Warren,PA,"41.838747, -79.188821",911048.jpg,,
Moon Township 9/11 Memorial,911084,911,,1000 Beaver Grade Rd,Moon,PA,"40.504366, -80.207439",911084.jpg,,
The Garden of Reflection,911099,911,,1950 Woodside Road,Lower Makefield,PA,"40.255887, -74.888866",911099.jpg,,
9/11 Memorial - Shanksville Volunteer Fire Company,911111,911,,"625 North St, Shanksville, PA 15560",Shanksville,PA,"40.017691, -78.906230",911111.jpg,,
Flight 93 National Memorial,911112,911,,6424 Lincoln Hwy,Stoystown,PA,"40.078905, -78.887150",911112.jpg,,
9/11 Memorial - Hummels Wharf Fire Company,911330,911,,1869 N Old Trail,Selinsgrove,PA,"40.830916, -76.836923",911330.jpg,,
Lewistown 9/11 Memorial ,911341,911,,6400 Belle Ave,Lewistown,PA,"40.592916, -77.578222",911341.jpg,,
Johnstown 9/11 Memorial,911342,911,,Highfield Ave and Kunk's Drive,Johnstown,PA,"40.268334, -78.835592",911342.jpg,,
Flight 93 Memorial Chapel and Garden,911343,911,,1717 Coleman Station Rd,Friedens,PA,"40.013444, -78.953695",911343.jpg,,
9/11 Memorial Benches,911344,911,,S R 1033 and Bogart ST,Hallstead,PA,"41.969530, -75.751399",911344.jpg,,
9/11 Memorial -  Raymond M Blasco Memorial Library ,911345,911,,160 E Front St,Erie,PA,"42.136628, -80.085843",911345.jpg,,
Nanticoke 9/11 Memorial - Fallen Heros and plaque honoring Michael Scott Carlo,911346,911,,College Drive and S Prospect St,Nanticoke,PA,"41.191752, -75.997203",911346.jpg,,
9/11 Memorial Plaque ,911375,911,,Hemlock Farms Road,Lords Valley,PA,"41.315133, -75.054767",911375.jpg,,
9/11 Memorial - Section of rail line - Berks Military History Museum,911381,911,,198 E Wyomissing,Mohnton,PA,"40.287604, -75.978961",911381.jpg,,
Lukens Steel's Steelworkers 9-11 Memorial - access from Dr. Martin Luther King Jr Blvd facing parking lot,911408,911,,52 South 1st Avenue,Coatsville,PA,"39.980950, -75.823540",911408.jpg,,
Daniel Crisman Park - Privately sponsored and maintained - Open 24/7 - also includes memorial as a tribute to the 343 Firefighters who gave their lives to save others.,911415,911,,2300 Ridge Rd,Montrose,PA,"41.801742, -75.898112",911415.jpg,,
9-11 Memorial,911480,911,,2 E Ridge St,Nanticoke,PA,"41.199295, -76.001372",911480.jpg,,
9/11 Memorial - Jamestown FD Memorial Museum ,911347,911,,50 Narragansett Ave,Jamestown,RI,"41.496391, -71.370501",911347.jpg,,
9/11 Memorial - A tribute and memorial to flight attendant  Amy Jarret,911348,911,,N Main St and Victory Hwy,North Smithfield,RI,"42.006760, -71.584430",911348.jpg,,
First Responders Remembrance Memorial,911004,911,,1101 Lincoln Street,Columbia,SC,"33.998274, -81.038146",911004.jpg,,
9/11 WTC Memorial Plaza,911049,911,,5020 Pelham Rd.,Greenville,SC,"34.857362, -82.256877",911049.jpg,,
Liberty Garden - Santee Rest Areas,911128,911,,Just north of Exit 98 - I-95,Santee,SC,"33.494864, -80.465770",911128.jpg,,
Myrtle Beach 9/11 Memorial,911146,911,,1325 Clebrity Circle,Myrtle Beach,SC,"33.717057, -78.876123",911146.jpg,,
9/11 Memorial - Florence Veterans Park,911147,911,,Woody Jones Blvd,Florence,SC,"34.185026, -79.834934",911147.jpg,,
9/11 Memorial Plaque - Williamston Fire Department,911349,911,,120 W Main St,Williamston,SC,"34.618042, -82.480384",911349.jpg,,
"""Fallen But Not Forgotten"" - Memorial on the Lexington County Courthouse lawn",911426,911,,E Main St and Fort St,Lexington,SC,"33.9801048, -81.2344018",911426.jpg,,
9/11 Memorial - Assembly Park,911036,911,,430 Main Street,Knoxville,TN,"35.960963, -83.917671",911036.jpg,,
Cumberland County FD 9/11 Memorial,911208,911,,1391 Livingston Rd,Crossville,TN,"35.968196, -85.042915",911208.jpg,,
9/11 Memorial - Tennessee Fallen Firefighter Memorial,911209,911,,2161 Unionville Deason Rd,Bell Buckle,TN,"35.607041, -86.505291",911209.jpg,,
Let None Stand Alone 9/11 Memorial,911222,911,,9100 Dayton Pike,Soddy-Daisy,TN,"35.229856, -85.210505",911222.jpg,,
9/11 Memorial - Rutherford County Sheriff's Office,911391,911,,940 New Salem Hwy,Murfreesboro,TN,"35.837048, -86.411469",911391.jpg,,
9/11 Memorial - Huber Park,911035,911,,1700-1752 S Main St,Borger,TX,"35.652206, -101.397669",911035.jpg,,
 9/11 Memorial - Texas State Cemetery,911075,911,,909 Navasota St,Austin*,TX,"30.266594, -97.725867",911075.jpg,,
9/11 Memorial - Mesquite Freedom Park,911095,911,,1527 N Galloway Ave,Mesquite,TX,"32.783829, -96.603174",911095.jpg,,
9/11 Memorial - Tyrrell Park Memorial ,911096,911,,6088 Babe Zaharias Dr,Beaumont,TX,"30.022482, -94.146631",911096.jpg,,
9/11 Trade Center Memorial,911107,911,,3003 US-90,Alpine,TX,"30.348955, -103.701690",911107.jpg,,
9/11 Flight Crew Memorial,911126,911,,1000 Texan Trail,Grapevine,TX,"32.940983, -97.065088",911126.jpg,,
9/11 Memorial - Euless FD Admin Building,911176,911,,201 N Ector Dr,Euless,TX,"32.840795, -97.092028",911176.jpg,,
9/11 Firefighters Memorial Bell Tower,911188,911,,323 E Hickory St,Denton,TX,"33.214417, -97.128683 ",911188.jpg,,
9/11 Heroes Walk,911189,911,,1100 North Blvd,Universal City,TX,"29.556567, -98.296350 ",911189.jpg,,
9/11 Memorial Park,911201,911,,Plano Pkwy and Destination Dr,The Colony,TX,"33.068295, -96.862447",911201.jpg,,
9/11 Memorial - Veterans Memorial Park,911202,911,,600 N Patricia St,Lacy Lakeview,TX,"31.636716, -97.103882",911202.jpg,,
9/11 Memorial - Fire Museum of Texas,911211,911,,400 Walnut St,Beaumont,TX,"30.085852, -94.098946",911211.jpg,,
Kennedale 9/11 Memorial ,911212,911,,401 Municipal Dr,Kennedale,TX,"32.648135, -97.22496",911212.jpg,,
College Station 9/11 Memorial ,911213,911,,3101 Harvey Rd,College Station,TX,"30.642176, -96.294684",911213.jpg,,
Ponderosa Volunteer FD 9/11 Memorial,911214,911,,4362 Louetta Rd,Spring,TX,"30.044855, -95.481220",911214.jpg,,
9/11 Memorial Plaque - Bellaire FD entrance,911350,911,,5101 Jessamine St,Bellaire (Houston),TX,"29.701881, -95.468178",911350.jpg,,
The San Antonio 9/11 Memorial ,911365,911,,6702 New Life Circle,San Antonio,TX,"29.40444, -98.61491",911365.jpg,,
9/11 Memorial -  Gainesville Firehouse,911372,911,,115 E Pecan St.,Gainesville,TX,"33.622967, -97.144617",911372.jpg,,
Longview 9/11 Memorial ,911378,911,,1216 E Park Ln,Longview,TX,"32.501551, -94.722363",911378.jpg,,
9/11 Memorial - Jasper County Courthouse ,911379,911,,E Lamar St and N Main St,Jasper,TX,"30.921507, -94.000451",911379.jpg,,
9/11 Memorial - Watauga Fire Department.,911393,911,,5909 Hightower Dr.,Watauga,TX,"32.874400, -97.253499",911393.jpg,,
9-11 Memorial,911484,911,,107 W Retama St,South Padre Island,TX,"26.110702, -97.169708",911484.jpg,,
9-11 Memorial,911485,911,,4362 Louetta Rd,Spring,TX,"30.044903, -95.481176",911485.jpg,,
Kearns 9/11 Memorial,911050,911,,5400S and Charlotte Ave.,Kearns,UT,"40.652958, -112.007139",911050.jpg,,
"9/11 Memorial -  “Unity,” “Remembrance” and “Hope.”",911068,911,,920 S 50 W,Kaysville,UT,"41.020389, -111.941209",911068.jpg,,
9/11 Memorial -  Murray Park ,911309,911,,S Murray Park Rd,Murray,UT,"40.661110, -111.882650",911309.jpg,,
9/11 Memorial -  Wasatch Lawn Memorial Park,911310,911,,"3401 S Highland Dr, Salt Lake City, UT 84106",Salt Lake City - East Millcree,UT,"40.697070, -111.848547",911310.jpg,,
9/11 Memorial - Hope Rising,911383,911,,10000 Centennial Parkway,Sandy,UT,"40.569940, -111.895391",911383.jpg,,
9/11 Memorial - Behind Historic Town Hall ,911395,911,,105 S 100 E,Pleasant Grove,UT,"40.362233, -111.738263",911395.jpg,,
9-11 Memorial - Veterans Park,911486,911,,3115 Bengal Blvd,Cottonwood Heights,UT,"40.609788, -111.803696",911486.jpg,,
Elkton 9/11 Memorial,911059,911,,197 N Terrace Avenue,Elkton,VA,"38.413561, -78.622569",911059.jpg,,
9/11 Memorial - Fire Station No. 1,911063,911,,105 South Market Street,Salem,VA,"37.292057, -80.056579",911063.jpg,,
Chesapeake 9/11 Memorial,911085,911,,900 City Park Drive,Chesapeake,VA,"36.749519, -76.228416",911085.jpg,,
9/11 Memorial - American Legion Post 16,911086,911,,1301 Greenview Dr.,Lynchburg,VA,"37.338083, -79.223281",911086.jpg,,
Fire Department New York 9/11 Memorial,911089,911,,18900 Jefferson Davis Hwy,Triangle,VA,"38.540601, -77.343814",911089.jpg,,
The National 9/11 Pentagon Memorial,911121,911,,1 N Rotary Rd,Arlington,VA,"38.870257, -77.059184",911121.jpg,,
Marion Volunteer FD 9/11 Memorial,911267,911,,231 W Main St,Marion,VA,"36.831701, -81.522688",911267.jpg,,
* 9-11 Memorial - Pentagon Group Burial Marker,911451,911,,Patton Circle,Arlington*,VA,"38.873467, -77.060914",911451.jpg,,
9-11 Memorial - Arlington County Fire Station 5,911475,911,,1750 S Hayes St,Arlington,VA,"38.857385, -77.057834",911475.jpg,,
9-11 Memorial - Stauton Fire Dept,911516,911,,500 N Augusta St,Staunton,VA,"38.154446, -79.073226",911516.jpg,,
9/11 Memorial -  Roosevelt Hwy between South Hero and Sand Bar State Park,911308,911,,Roosevelt Hwy,Milton - South Hero,VT,"44.62888, -73.24853",911308.jpg,,
9-11 Memorial - Bennington County Courthouse ,911474,911,,207 South St,Bennington,VT,"42.876972, -73.197333",911474.jpg,,
Moses Lake Civic Center 9/11 Memorial,911032,911,,418 E 5th Avenue,Moses Lake,WA,"47.131249, -119.271005",911032.jpg,,
9/11 Spirit of America Memorial,911037,911,,201 Riverside Dr,Cashmere,WA,"47.52397, -120.46763",911037.jpg,,
9/11 Memorial - The Day That Changed Our Lives,911051,911,,NE 4th and Cedar Streets,Camas,WA,"45.585856, -122.404247",911051.jpg,,
9/11 Memorial - South King Fire & Rescue Station 64,911052,911,,3700 S 320th St.,Federal Way,WA,"47.315281, -122.286965",911052.jpg,,
9/11 - WTC Memorial,911072,911,,Hildebrand Rd,Kennewick,WA,"46.179130, -119.185133",911072.jpg,,
Banner of Service - 9/11 Memorial,911088,911,,120 E. Lincoln Rd.,Spokane,WA,"47.729215, -117.407878",911088.jpg,,
9/11 Memorial - George Washington Park ,911307,911,,110 S Silver St,Centralia,WA,"46.716122, -122.956306",911307.jpg,,
9/11 Memorial - Evergreen Rotary Park,911316,911,,1300 Highland Ave,Bremerton,WA,"47.572800, -122.625506",911316.jpg,,
9-11 Memorial - *Ferry Ride required to access this simple memorial ,911430,911,,10202 Eckenstam Johnson Rd,Anderson Island*,WA,"47.165100, -122.699500",911430.jpg,,
9-11 Memorial,911492,911,,1200 Bailey Ave,Granger,WA,"46.344981, -120.180324",911492.jpg,,
9/11 Memorial,911190,911,,2400 Post Rd,Plover,WI,"44.462567, -89.543600",911190.jpg,,
"The Citizen Soldier on 9/11 - Firefighters, EMT’s, Police Officers, Nurses, Doctors and others ",911417,911,,641 Hwy 27 South,Cadott,WI,"44.936884, -91.146792",911417.jpg,,
9-11 Memorial - We Will Never Forget Memorial,911447,911,,W234N8676 Woodside Road,Lisbon,WI,"43.174538, -88.211180",911447.jpg,,
9-11 Memorial,911448,911,,551 Memorial Park Dr,Arcadia,WI,"44.243134, -91.496767",911448.jpg,,
* 9-11 Memorial,911453,911,,700 Traxler Park Rd,Janesville*,WI,"42.692488, -89.031480",911453.jpg,,
9-11 Memorial - Marine Corps League Aero Park ,911459,911,,907 Boomer Street,Watertown,WI,"43.174283, -88.717783",911459.jpg,,
9-11 Memorial,911460,911,,1110 18th Ave,Monroe,WI,"42.600533, -89.637333",911460.jpg,,
9-11 Memorial - September 11th Patriots Day ... Lest We Forget,911461,911,,206 W Park St,Marshfield*,WI,"44.661771, -90.179151",911461.jpg,,
9-11 Memorial - Antigo Fire Department,911462,911,,700 Edison St,Antigo,WI,"45.142417, -89.156283",911462.jpg,,
9-11 Memorial,911463,911,,W6895 Parkview Dr,Greenville,WI,"44.302226, -88.536181",911463.jpg,,
9/11 Memorial - Spring Hill Cemetery,911033,911,,1427 Norway Avenue,Huntington*,WV,"38.411085, -82.416854",911033.jpg,,
9/11 Memorial - Chicory Square Park ,911064,911,,Chicory Square Park,Bluefield,WV,"37.268797, -81.222263",911064.jpg,,
9/11 Memorial -  Brooke-Hancock County Veterans Memorial Park,911306,911,,27 Marshaling Yard Dr,Weirton,WV,"40.390714, -80.594074",911306.jpg,,
9-11 Memorial - We Will Never Forget - Word Park,911411,911,,1st Ave and Neville St,Beckley,WV,"37.775801, -81.191591",911411.jpg,,
* 9-11 Memorial - Veterans Cemetery,911452,911,,130 Academy Dr,Dunbar*,WV,"38.386779, -81.755092",911452.jpg,,
9/11 Memorial - Depot Square,911219,911,,920 Front St,Evanston,WY,"41.26841, -110.96445",911219.jpg,,
9/11 Memorial - Liberty Park ,911366,911,,315 S Main St,Burns,WY,"41.18879, -104.35883",911366.jpg,,